SL-3 R/B                
1 13819U 83010B   26107.11712523  .00007611  00000+0  14677-3 0  9994
2 13819  81.1012 315.0874 0015009 273.5685  86.3843 15.47542926363881
SL-3 R/B                
1 14208U 83075B   26107.24651871  .00006585  00000+0  16960-3 0  9996
2 14208  97.6127 113.3118 0023249  92.1029 268.2879 15.39305238336081
COSMOS 1536             
1 14699U 84013A   26106.60281247  .00003815  00000+0  15408-3 0  9997
2 14699  82.5435  70.1378 0015489 142.5523 217.6796 15.24345804278396
SL-14 R/B               
1 14820U 84027B   26107.27698582  .00000295  00000+0  30917-4 0  9998
2 14820  82.5441 208.8268 0017426 201.1113 158.9387 14.86016815253364
SL-8 R/B                
1 15483U 85006B   26107.19818720  .00000136  00000+0  53753-4 0  9998
2 15483  74.0462 190.2904 0017217  95.5419 292.0248 14.37808286159562
SL-12 R/B(2)            
1 15772U 85042D   26107.18313638  .00000027  00000+0  33367-4 0  9994
2 15772  71.1104   6.4036 0033161  64.2959  47.9502 14.21993297119865
SL-14 R/B               
1 15945U 85069B   26107.11533217  .00000261  00000+0  26670-4 0  9994
2 15945  82.5289 348.8106 0020260  67.0356 293.2996 14.86471844178549
SL-16 R/B               
1 16182U 85097B   26107.27612757  .00000135  00000+0  91838-4 0  9991
2 16182  71.0034  59.3136 0008529 212.5942 297.8027 14.16606506 92697
SL-14 R/B               
1 16496U 86006B   26107.28433494  .00000527  00000+0  52936-4 0  9991
2 16496  82.5283 223.4121 0077408 143.8877 216.7604 14.86881204154946
COSMOS 1743             
1 16719U 86034A   26106.22627644  .00029880  00000+0  34277-3 0  9995
2 16719  82.5316  34.3377 0007061 125.2745 234.9174 15.61886544186102
SL-14 R/B               
1 16792U 86046B   26107.26656538  .00000290  00000+0  30427-4 0  9996
2 16792  82.4836  43.7294 0024680  99.8064 260.5941 14.85628282132136
SL-14 R/B               
1 16882U 86055B   26106.46307076  .00000278  00000+0  29157-4 0  9991
2 16882  82.5175  91.1569 0018201 202.7163 274.8047 14.85676562124974
AJISAI (EGS)            
1 16908U 86061A   26107.27122956 -.00000085  00000+0  89111-4 0  9992
2 16908  50.0113 334.7123 0011404  26.1072  80.9082 12.44515810472806
