[
    {
        "OBJECT_NAME": "SL-3 R/B",
        "OBJECT_ID": "1983-010B",
        "EPOCH": "2026-04-17T02:48:39.619872",
        "MEAN_MOTION": 15.47542926,
        "ECCENTRICITY": 0.0015009,
        "INCLINATION": 81.1012,
        "RA_OF_ASC_NODE": 315.0874,
        "ARG_OF_PERICENTER": 273.5685,
        "MEAN_ANOMALY": 86.3843,
        "EPHEMERIS_TYPE": 0,
        "CLASSIFICATION_TYPE": "U",
        "NORAD_CAT_ID": 13819,
        "ELEMENT_SET_NO": 999,
        "REV_AT_EPOCH": 36388,
        "BSTAR": 0.00014676701,
        "MEAN_MOTION_DOT": 7.611e-05,
        "MEAN_MOTION_DDOT": 0
    },
    {
        "OBJECT_NAME": "SL-3 R/B",
        "OBJECT_ID": "1983-075B",
        "EPOCH": "2026-04-17T05:54:59.216544",
        "MEAN_MOTION": 15.39305238,
        "ECCENTRICITY": 0.00232494,
        "INCLINATION": 97.6127,
        "RA_OF_ASC_NODE": 113.3118,
        "ARG_OF_PERICENTER": 92.1029,
        "MEAN_ANOMALY": 268.2879,
        "EPHEMERIS_TYPE": 0,
        "CLASSIFICATION_TYPE": "U",
        "NORAD_CAT_ID": 14208,
        "ELEMENT_SET_NO": 999,
        "REV_AT_EPOCH": 33608,
        "BSTAR": 0.00016960267,
        "MEAN_MOTION_DOT": 6.585e-05,
        "MEAN_MOTION_DDOT": 0
    },
    {
        "OBJECT_NAME": "COSMOS 1536",
        "OBJECT_ID": "1984-013A",
        "EPOCH": "2026-04-16T14:28:02.997408",
        "MEAN_MOTION": 15.24345804,
        "ECCENTRICITY": 0.0015489,
        "INCLINATION": 82.5435,
        "RA_OF_ASC_NODE": 70.1378,
        "ARG_OF_PERICENTER": 142.5523,
        "MEAN_ANOMALY": 217.6796,
        "EPHEMERIS_TYPE": 0,
        "CLASSIFICATION_TYPE": "U",
        "NORAD_CAT_ID": 14699,
        "ELEMENT_SET_NO": 999,
        "REV_AT_EPOCH": 27839,
        "BSTAR": 0.00015408449,
        "MEAN_MOTION_DOT": 3.815e-05,
        "MEAN_MOTION_DDOT": 0
    },
    {
        "OBJECT_NAME": "SL-14 R/B",
        "OBJECT_ID": "1984-027B",
        "EPOCH": "2026-04-17T06:38:51.574848",
        "MEAN_MOTION": 14.86016815,
        "ECCENTRICITY": 0.00174264,
        "INCLINATION": 82.5441,
        "RA_OF_ASC_NODE": 208.8268,
        "ARG_OF_PERICENTER": 201.1113,
        "MEAN_ANOMALY": 158.9387,
        "EPHEMERIS_TYPE": 0,
        "CLASSIFICATION_TYPE": "U",
        "NORAD_CAT_ID": 14820,
        "ELEMENT_SET_NO": 999,
        "REV_AT_EPOCH": 25336,
        "BSTAR": 3.0916577e-05,
        "MEAN_MOTION_DOT": 2.95e-06,
        "MEAN_MOTION_DDOT": 0
    },
    {
        "OBJECT_NAME": "SL-8 R/B",
        "OBJECT_ID": "1985-006B",
        "EPOCH": "2026-04-17T04:45:23.374080",
        "MEAN_MOTION": 14.37808286,
        "ECCENTRICITY": 0.0017217,
        "INCLINATION": 74.0462,
        "RA_OF_ASC_NODE": 190.2904,
        "ARG_OF_PERICENTER": 95.5419,
        "MEAN_ANOMALY": 292.0248,
        "EPHEMERIS_TYPE": 0,
        "CLASSIFICATION_TYPE": "U",
        "NORAD_CAT_ID": 15483,
        "ELEMENT_SET_NO": 999,
        "REV_AT_EPOCH": 15956,
        "BSTAR": 5.3752895e-05,
        "MEAN_MOTION_DOT": 1.36e-06,
        "MEAN_MOTION_DDOT": 0
    },
    {
        "OBJECT_NAME": "SL-12 R/B(2)",
        "OBJECT_ID": "1985-042D",
        "EPOCH": "2026-04-17T04:23:42.983232",
        "MEAN_MOTION": 14.21993297,
        "ECCENTRICITY": 0.0033161,
        "INCLINATION": 71.1104,
        "RA_OF_ASC_NODE": 6.4036,
        "ARG_OF_PERICENTER": 64.2959,
        "MEAN_ANOMALY": 47.9502,
        "EPHEMERIS_TYPE": 0,
        "CLASSIFICATION_TYPE": "U",
        "NORAD_CAT_ID": 15772,
        "ELEMENT_SET_NO": 999,
        "REV_AT_EPOCH": 11986,
        "BSTAR": 3.3367007e-05,
        "MEAN_MOTION_DOT": 2.7e-07,
        "MEAN_MOTION_DDOT": 0
    },
    {
        "OBJECT_NAME": "SL-14 R/B",
        "OBJECT_ID": "1985-069B",
        "EPOCH": "2026-04-17T02:46:04.699488",
        "MEAN_MOTION": 14.86471844,
        "ECCENTRICITY": 0.00202603,
        "INCLINATION": 82.5289,
        "RA_OF_ASC_NODE": 348.8106,
        "ARG_OF_PERICENTER": 67.0356,
        "MEAN_ANOMALY": 293.2996,
        "EPHEMERIS_TYPE": 0,
        "CLASSIFICATION_TYPE": "U",
        "NORAD_CAT_ID": 15945,
        "ELEMENT_SET_NO": 999,
        "REV_AT_EPOCH": 17854,
        "BSTAR": 2.6670084e-05,
        "MEAN_MOTION_DOT": 2.61e-06,
        "MEAN_MOTION_DDOT": 0
    },
    {
        "OBJECT_NAME": "SL-16 R/B",
        "OBJECT_ID": "1985-097B",
        "EPOCH": "2026-04-17T06:37:37.422048",
        "MEAN_MOTION": 14.16606506,
        "ECCENTRICITY": 0.00085291,
        "INCLINATION": 71.0034,
        "RA_OF_ASC_NODE": 59.3136,
        "ARG_OF_PERICENTER": 212.5942,
        "MEAN_ANOMALY": 297.8027,
        "EPHEMERIS_TYPE": 0,
        "CLASSIFICATION_TYPE": "U",
        "NORAD_CAT_ID": 16182,
        "ELEMENT_SET_NO": 999,
        "REV_AT_EPOCH": 9269,
        "BSTAR": 9.1838483e-05,
        "MEAN_MOTION_DOT": 1.35e-06,
        "MEAN_MOTION_DDOT": 0
    },
    {
        "OBJECT_NAME": "SL-14 R/B",
        "OBJECT_ID": "1986-006B",
        "EPOCH": "2026-04-17T06:49:26.538816",
        "MEAN_MOTION": 14.86881204,
        "ECCENTRICITY": 0.0077408,
        "INCLINATION": 82.5283,
        "RA_OF_ASC_NODE": 223.4121,
        "ARG_OF_PERICENTER": 143.8877,
        "MEAN_ANOMALY": 216.7604,
        "EPHEMERIS_TYPE": 0,
        "CLASSIFICATION_TYPE": "U",
        "NORAD_CAT_ID": 16496,
        "ELEMENT_SET_NO": 999,
        "REV_AT_EPOCH": 15494,
        "BSTAR": 5.2936116e-05,
        "MEAN_MOTION_DOT": 5.27e-06,
        "MEAN_MOTION_DDOT": 0
    },
    {
        "OBJECT_NAME": "COSMOS 1743",
        "OBJECT_ID": "1986-034A",
        "EPOCH": "2026-04-16T05:25:50.284416",
        "MEAN_MOTION": 15.61886544,
        "ECCENTRICITY": 0.0007061,
        "INCLINATION": 82.5316,
        "RA_OF_ASC_NODE": 34.3377,
        "ARG_OF_PERICENTER": 125.2745,
        "MEAN_ANOMALY": 234.9174,
        "EPHEMERIS_TYPE": 0,
        "CLASSIFICATION_TYPE": "U",
        "NORAD_CAT_ID": 16719,
        "ELEMENT_SET_NO": 999,
        "REV_AT_EPOCH": 18610,
        "BSTAR": 0.00034277,
        "MEAN_MOTION_DOT": 0.0002988,
        "MEAN_MOTION_DDOT": 0
    },
    {
        "OBJECT_NAME": "SL-14 R/B",
        "OBJECT_ID": "1986-046B",
        "EPOCH": "2026-04-17T06:23:51.248832",
        "MEAN_MOTION": 14.85628282,
        "ECCENTRICITY": 0.00246804,
        "INCLINATION": 82.4836,
        "RA_OF_ASC_NODE": 43.7294,
        "ARG_OF_PERICENTER": 99.8064,
        "MEAN_ANOMALY": 260.5941,
        "EPHEMERIS_TYPE": 0,
        "CLASSIFICATION_TYPE": "U",
        "NORAD_CAT_ID": 16792,
        "ELEMENT_SET_NO": 999,
        "REV_AT_EPOCH": 13213,
        "BSTAR": 3.0426764e-05,
        "MEAN_MOTION_DOT": 2.9e-06,
        "MEAN_MOTION_DDOT": 0
    },
    {
        "OBJECT_NAME": "SL-14 R/B",
        "OBJECT_ID": "1986-055B",
        "EPOCH": "2026-04-16T11:06:49.313664",
        "MEAN_MOTION": 14.85676562,
        "ECCENTRICITY": 0.00182019,
        "INCLINATION": 82.5175,
        "RA_OF_ASC_NODE": 91.1569,
        "ARG_OF_PERICENTER": 202.7163,
        "MEAN_ANOMALY": 274.8047,
        "EPHEMERIS_TYPE": 0,
        "CLASSIFICATION_TYPE": "U",
        "NORAD_CAT_ID": 16882,
        "ELEMENT_SET_NO": 999,
        "REV_AT_EPOCH": 12497,
        "BSTAR": 2.9157447e-05,
        "MEAN_MOTION_DOT": 2.78e-06,
        "MEAN_MOTION_DDOT": 0
    },
    {
        "OBJECT_NAME": "AJISAI (EGS)",
        "OBJECT_ID": "1986-061A",
        "EPOCH": "2026-04-17T06:30:34.233984",
        "MEAN_MOTION": 12.4451581,
        "ECCENTRICITY": 0.00114045,
        "INCLINATION": 50.0113,
        "RA_OF_ASC_NODE": 334.7123,
        "ARG_OF_PERICENTER": 26.1072,
        "MEAN_ANOMALY": 80.9082,
        "EPHEMERIS_TYPE": 0,
        "CLASSIFICATION_TYPE": "U",
        "NORAD_CAT_ID": 16908,
        "ELEMENT_SET_NO": 999,
        "REV_AT_EPOCH": 47280,
        "BSTAR": 8.9111176e-05,
        "MEAN_MOTION_DOT": -8.5e-07,
        "MEAN_MOTION_DDOT": 0
    }
]